GALAXY 13 (HORIZONS-1)  
1 27954U 03044A   16304.51176309  .00000042  00000-0  00000-0 0  9990
2 27954   0.0441  91.3693 0002837 170.0449 195.0811  1.00271856 47897
ZHONGXING-20            
1 28082U 03052A   16304.90616255 -.00000327  00000-0  00000-0 0  9991
2 28082   3.0566  72.3625 0005850 189.1359 207.5676  1.00268047 47508
YAMAL 202               
1 28089U 03053A   16304.93306319  .00000114  00000-0  00000-0 0  9992
2 28089   0.0557  69.8301 0003912 207.8581 146.9218  1.00274803 47422
AMOS-2                  
1 28132U 03059A   16304.18029557 -.00000041  00000-0  00000-0 0  9990
2 28132   0.2417  89.5534 0002116 130.7482 239.5288  1.00270534 47124
EXPRESS-AM22 (SESAT 2)  
1 28134U 03060A   16304.92132714 -.00000142  00000-0  00000-0 0  9998
2 28134   0.0416 287.9023 0000598 329.6808 193.8807  1.00272206 47029
AMC-10 (GE-10)          
1 28154U 04003A   16304.53803218  .00000082  00000-0  00000-0 0  9991
2 28154   0.0127 300.4770 0001289 217.2673 300.2301  1.00272677 46664
ABS-4 (MOBISAT-1)       
1 28184U 04007A   16304.60999362  .00000035  00000-0  00000-0 0  9990
2 28184   0.0228 276.0914 0001615 314.4078  89.4627  1.00273005 46314
EUTELSAT 7A             
1 28187U 04008A   16304.12810167  .00000041  00000-0  00000-0 0  9993
2 28187   0.0668  28.6000 0005503 187.3891 236.0146  1.00271943 46317
DIRECTV 7S              
1 28238U 04016A   16304.39033443 -.00000005  00000-0  00000-0 0  9993
2 28238   0.0255 307.3210 0002889 283.0857 190.1943  1.00272391 45802
AMC-11 (GE-11)          
1 28252U 04017A   16304.57515101  .00000063  00000-0  00000-0 0  9999
2 28252   0.0570  71.3413 0002768 163.7533 240.3084  1.00272575 45697
INTELSAT 10-02          
1 28358U 04022A   16303.86401027 -.00000018  00000-0  00000-0 0  9995
2 28358   0.0112 222.4604 0000624 316.4990 169.7424  1.00273194 45353
APSTAR 5 (TELSTAR 18)   
1 28364U 04024A   16304.68382832 -.00000299  00000-0  00000-0 0  9998
2 28364   0.0167 279.5061 0002967 303.8753 200.2457  1.00272015 45290
ANIK F2                 
1 28378U 04027A   16304.60232181 -.00000055  00000-0  00000-0 0  9999
2 28378   0.0275  60.5539 0000542 245.2905 199.2534  1.00269354  6032
AMAZONAS 1              
1 28393U 04031A   16303.18043274 -.00000254  00000-0  00000+0 0  9996
2 28393   1.2700  84.7044 0005128 155.0528 186.9938  1.00272433 44842
AMC-15                  
1 28446U 04041A   16304.61866869 -.00000094  00000-0  00000-0 0  9991
2 28446   0.0353  25.5586 0002394 180.8670 310.6220  1.00271083 44134
AMC-16                  
1 28472U 04048A   16304.25588728 -.00000212  00000-0  00000-0 0  9994
2 28472   0.0055  46.8018 0002636 187.1752 172.1629  1.00271751 43492
NSS-10 (AMC-12)         
1 28526U 05003A   16304.05565602 -.00000257  00000-0  00000-0 0  9999
2 28526   0.0313 302.3282 0002610 273.7783 165.3162  1.00272329 43050
XTAR-EUR                
1 28542U 05005A   16304.80959311  .00000146  00000-0  00000-0 0  9992
2 28542   0.0544 272.6616 0002584 310.5387 136.8118  1.00271524 42929
XM-3 (RHYTHM)           
1 28626U 05008A   16304.25588728 -.00000212  00000-0  00000-0 0  9992
2 28626   0.0171  67.9358 0000242 105.7068 232.4365  1.00274333 42800
INMARSAT 4-F1           
1 28628U 05009A   16304.51537338 -.00000266  00000-0  00000-0 0  9994
2 28628   2.8458   8.7138 0003622 225.1017 134.5047  1.00271270 42418
EXPRESS-AM2             
1 28629U 05010A   16304.92132714 -.00000141  00000-0  00000-0 0  9993
2 28629   1.8648  80.1451 0001142 135.7345 235.4986  1.00272318  5737
APSTAR 6                
1 28638U 05012A   16304.93707549 -.00000322  00000-0  00000-0 0  9991
2 28638   0.0126 137.6176 0002662 105.7076 267.7356  1.00270754 67152
SPACEWAY 1              
1 28644U 05015A   16304.56617705 -.00000108  00000-0  00000-0 0  9996
2 28644   0.0125 235.7317 0000229 303.8684 320.6040  1.00273400 42252
DIRECTV 8               
1 28659U 05019A   16304.17198307 -.00000122  00000-0  00000-0 0  9991
2 28659   0.0174  66.3977 0003507 172.6112 120.9876  1.00272260 41881
GALAXY 28 (G-28)        
1 28702U 05022A   16304.40835399 -.00000192  00000-0  00000-0 0  9996
2 28702   0.0117 285.4230 0000072 195.7345 336.0262  1.00274555 41564
EXPRESS-AM3             
1 28707U 05023A   16304.90616255 -.00000327  00000-0  00000-0 0  9995
2 28707   0.0175 290.1600 0000670 354.5702 184.1598  1.00271406 41592
THAICOM 4               
1 28786U 05028A   16304.70324127 -.00000368  00000-0  00000-0 0  9994
2 28786   0.0152 261.1057 0002004 312.6509 198.3324  1.00269239 41068
GALAXY 14 (G-14)        
1 28790U 05030A   16304.39342109  .00000030  00000-0  00000-0 0  9992
2 28790   0.0180   1.9979 0002392 219.6821 194.1138  1.00273763 41053
ANIK F1R                
1 28868U 05036A   16304.21512296 -.00000081  00000-0  00000-0 0  9998
2 28868   0.0032  42.7889 0000699 228.8015  97.5563  1.00273718 40892
GALAXY 15 (G-15)        
1 28884U 05041A   16304.50978287  .00000073  00000-0  00000-0 0  9990
2 28884   0.0240 296.6120 0001945 315.1786 198.0188  1.00275258 40362
SYRACUSE 3A             
1 28885U 05041B   16304.92896411  .00000124  00000-0  00000-0 0  9992
2 28885   0.0059  28.3118 0003724 196.9366 195.8520  1.00272708 40490
INMARSAT 4-F2           
1 28899U 05044A   16304.73543380  .00000006  00000-0  00000-0 0  9992
2 28899   2.5318   8.5879 0003138 222.5593 136.9942  1.00271848 40264
TELKOM 2                
1 28902U 05046A   16304.81438262 -.00000368  00000-0  00000-0 0  9992
2 28902   0.0343 115.0722 0001222 111.1881 224.5036  1.00270119 40174
SPACEWAY 2              
1 28903U 05046B   16304.57280527 -.00000132  00000-0  00000-0 0  9994
2 28903   0.0354  96.6449 0000320 266.3114 143.5154  1.00271595 40234
INSAT-4A                
1 28911U 05049A   16304.65982994 -.00000171  00000-0  00000-0 0  9995
2 28911   0.0653  92.7474 0006326 155.2597 111.9577  1.00271568 10452
METEOSAT-9 (MSG-2)      
1 28912U 05049B   16304.12816265  .00000056  00000-0  00000-0 0  9996
2 28912   1.7540  69.5617 0000367  89.8305 295.0929  1.00265958 39817
EUTELSAT 172A (GE-23)   
1 28924U 05052A   16304.77618909 -.00000011  00000-0  00000-0 0  9991
2 28924   0.0717 346.4702 0006239 242.2551 262.2412  1.00273272 17099
ECHOSTAR 10             
1 28935U 06003A   16304.60232207 -.00000061  00000-0  00000-0 0  9990
2 28935   0.0076  74.4824 0002030  90.6748 340.8646  1.00271592 39235
HIMAWARI-7 (MTSAT-2)    
1 28937U 06004A   16304.83136417 -.00000247  00000-0  00000-0 0  9990
2 28937   0.0144 293.0694 0003366 281.0139 269.8237  1.00271288 39092
SPAINSAT                
1 28945U 06007A   16303.97562814 -.00000223  00000-0  00000-0 0  9994
2 28945   0.0187 185.1536 0005482  33.6445 141.1930  1.00272113  7585
EUTELSAT HOT BIRD 13E   
1 28946U 06007B   16303.85655702  .00000079  00000-0  00000-0 0  9999
2 28946   0.0498  96.7521 0006359 115.8736 147.3650  1.00271234 39037
JCSAT-5A                
1 29045U 06010A   16304.68382832 -.00000334  00000-0  00000-0 0  9992
2 29045   0.0113 266.7907 0000941 301.7091 209.1338  1.00269537 38683
ASTRA 1KR               
1 29055U 06012A   16304.75169572  .00000115  00000-0  00000-0 0  9993
2 29055   0.0432 278.8033 0004918 309.4082 101.0973  1.00273850 10458
GOES 13                 
1 29155U 06018A   16304.10051858 -.00000257  00000-0  00000-0 0  9994
2 29155   0.1127 106.5440 0001825   0.9523 252.5545  1.00281464 38252
EUTELSAT 113 WEST A     
1 29162U 06020A   16304.20566201 -.00000044  00000-0  00000-0 0  9993
2 29162   0.0116 309.1972 0002509 269.1746 141.6413  1.00272073 38218
THAICOM 5               
1 29163U 06020B   16304.92132714 -.00000127  00000-0  00000-0 0  9993
2 29163   0.0354 278.6797 0006250 338.9193 192.2729  1.00272753 38246
GALAXY 16 (G-16)        
1 29236U 06023A   16304.57280378 -.00000133  00000-0  00000-0 0  9995
2 29236   0.0156 232.4825 0002421 332.1259 301.9375  1.00273278 38005
EUTELSAT HOT BIRD 13B   
1 29270U 06032A   16304.68257689  .00000081  00000-0  00000-0 0  9995
2 29270   0.0823 325.6708 0003286 276.8415  55.6451  1.00271648 12062
JCSAT-3A                
1 29272U 06033A   16304.90441053 -.00000350  00000-0  00000-0 0  9993
2 29272   0.0131 273.5007 0001536 283.6654 296.0629  1.00269256 12482
SYRACUSE 3B             
1 29273U 06033B   16304.05647168 -.00000049  00000-0  00000-0 0  9990
2 29273   0.0132 293.0114 0004416 312.6232 168.3687  1.00275672 37486
KOREASAT 5 (MUGUNGWHA 5)
1 29349U 06034A   16304.73894519 -.00000364  00000-0  00000-0 0  9994
2 29349   0.0191  68.9352 0001095 165.8792 183.7684  1.00272885 37376
ZHONGXING-22A           
1 29398U 06038A   16304.84873499 -.00000322  00000-0  00000-0 0  9992
2 29398   5.3927  59.1781 0008724 182.7009 205.0481  1.00273162 37156
DIRECTV 9S              
1 29494U 06043A   16304.56459257 -.00000119  00000-0  00000-0 0  9990
2 29494   0.0198 211.7847 0003015   8.1425 281.5506  1.00272095 16142
OPTUS D1                
1 29495U 06043B   16304.83659808 -.00000115  00000-0  00000-0 0  9991
2 29495   0.0611  77.3794 0003253 137.9624 285.4272  1.00272316 36888
XM-4 (BLUES)            
1 29520U 06049A   16304.44117519 -.00000029  00000-0  00000-0 0  9995
2 29520   0.0178  65.8579 0000186 233.6280 143.3004  1.00271778 16213
BADR-4                  
1 29526U 06051A   16304.82132734  .00000140  00000-0  00000-0 0  9995
2 29526   0.0511 338.5332 0004604 282.7886  99.9318  1.00275178 16046
FENGYUN 2D              
1 29640U 06053A   16304.81438262 -.00000363  00000-0  10000-3 0  9990
2 29640   4.0285  65.4922 0001843 295.1784  95.4213  1.00283276 36307
WILDBLUE-1              
1 29643U 06054A   16304.55142271 -.00000055  00000-0  00000-0 0  9991
2 29643   0.0491  88.4018 0001553 123.7716 274.4784  1.00272365 18540
AMC-18                  
1 29644U 06054B   16304.64087119 -.00000095  00000-0  00000-0 0  9995
2 29644   0.0118 307.3069 0002401 287.6268 290.2314  1.00272027 36338
